SL-16 R/B               
1 23405U 94077B   26162.39695765 -.00000193  00000+0 -74025-4 0  9994
2 23405  70.9805 155.3442 0002695 331.6399  28.4576 14.15572204629498
ARIANE 40+ R/B          
1 23561U 95021B   26162.64573118  .00000212  00000+0  81308-4 0  9994
2 23561  98.4411 232.8005 0006065 211.1259 271.2310 14.39830335632763
SL-16 R/B               
1 23705U 95058B   26162.62047935  .00000113  00000+0  82163-4 0  9995
2 23705  71.0215 343.0464 0013506 328.0858  31.9445 14.15505575581141
SL-16 R/B               
1 24298U 96051B   26162.57824600  .00000116  00000+0  89667-4 0  9992
2 24298  70.7638 336.5197 0014988 345.3905  14.6779 14.12444036534905
ORBVIEW 2 (SEASTAR)     
1 24883U 97037A   26162.44403202  .00000190  00000+0  82157-4 0  9993
2 24883  98.8682 329.3041 0003038 127.6428 232.5032 14.35550492521928
SL-16 R/B               
1 25400U 98043G   26162.60960357  .00000026  00000+0  29848-4 0  9990
2 25400  98.8362 116.7209 0010922 100.8867 259.3543 14.26067680452371
SL-16 R/B               
1 25407U 98045B   26162.58531014 -.00000125  00000+0 -39023-4 0  9998
2 25407  71.0121 344.1109 0009498 248.7612 111.2498 14.16204881440395
ISS (ZARYA)             
1 25544U 98067A   26162.51298015  .00008593  00000+0  16294-3 0  9997
2 25544  51.6332 328.1749 0005119 173.4651 186.6405 15.49175527570872
CZ-4B R/B               
1 25732U 99025C   26162.64551644  .00000034  00000+0  36881-4 0  9992
2 25732  98.6485 204.6233 0038211  75.1489  37.8005 14.18282559401485
OKEAN-O                 
1 25860U 99039A   26162.60260943  .00000505  00000+0  72818-4 0  9997
2 25860  97.9318 221.4644 0001743  75.6964 284.4442 14.80460634448285
SL-16 R/B               
1 25861U 99039B   26162.15691162  .00000387  00000+0  55785-4 0  9991
2 25861  97.9839 221.0369 0013806 318.1920  41.8237 14.81839095450703
DELTA 2 R/B             
1 25876U 99041E   26162.65456806  .00000742  00000+0  15723-3 0  9991
2 25876  51.7663 285.8973 0500870 265.6605  88.6963 14.12006126376302
HELIOS 1B               
1 25977U 99064A   26162.59727755  .00001200  00000+0  13719-3 0  9998
2 25977  98.1620  67.5751 0002473  98.7251 261.4245 14.87992090699228
TERRA                   
1 25994U 99068A   26162.61800161  .00000331  00000+0  76311-4 0  9999
2 25994  97.9458 212.3849 0001165 212.7664 264.0543 14.61098725408798
SL-16 R/B               
1 26070U 00006B   26162.62508104 -.00000274  00000+0 -11503-3 0  9991
2 26070  71.0027 260.3204 0015231  31.6871 328.5166 14.15835331361857
TITAN 4B R/B            
1 26474U 00047B   26162.62933707  .00002837  00000+0  17759-3 0  9999
2 26474  67.9872 136.2167 0045609 292.8503  66.7833 15.10164886407096
ENVISAT                 
1 27386U 02009A   26162.63983580  .00000060  00000+0  33168-4 0  9996
2 27386  98.3832 114.0820 0001345  90.1775  87.9707 14.39063514272688
IDEFIX & ARIANE 42P R/B 
1 27422U 02021B   26162.53619353  .00000173  00000+0  82492-4 0  9993
2 27422  98.5943 100.0806 0010583 272.4874  87.5097 14.31079537257441
AQUA                    
1 27424U 02022A   26162.67019488  .00000681  00000+0  14524-3 0  9998
2 27424  98.4275 131.8429 0001326  53.0500 124.9393 14.62149861282464
CZ-4B R/B               
1 27432U 02024C   26162.59375073  .00000024  00000+0  34687-4 0  9999
2 27432  98.8701 215.4501 0051141 115.7923   6.5449 14.14563456242512
MIDORI II (ADEOS-II)    
1 27597U 02056A   26162.60793468  .00000219  00000+0  10382-3 0  9991
2 27597  98.7876 121.8204 0002222  84.4663 275.6772 14.29346656223711
H-2A R/B                
1 27601U 02056E   26162.50830606  .00000157  00000+0  69715-4 0  9998
2 27601  98.3310 119.3899 0068975 241.7283 227.9874 14.33819676227552
CZ-4B R/B               
1 28059U 03049C   26162.59260823  .00000272  00000+0  74013-4 0  9991
2 28059  98.6895 161.2164 0047135 306.0717  53.6118 14.55096543200251
CZ-2C R/B               
1 28222U 04012C   26162.58142429  .00094162  00000+0  55370-3 0  9999
2 28222  97.7096 237.5970 0008950 307.8744  52.1711 15.77909746219019
SL-16 R/B               
1 28353U 04021B   26162.08005339 -.00000271  00000+0 -11638-3 0  9996
2 28353  71.0017  36.5069 0007466 261.8817  98.1458 14.14611092136042
CZ-4B R/B               
1 28415U 04035C   26162.57562607  .00007557  00000+0  25489-3 0  9991
2 28415  97.3373 195.7122 0030576 358.4261   1.6878 15.30544874194264
CZ-2C R/B               
1 28480U 04046B   26162.58215531  .00000044  00000+0  31837-4 0  9996
2 28480  98.1950  71.7130 0138247 236.9530 121.8311 14.27025299121897
ARIANE 5 R/B            
1 28499U 04049H   26162.47199212  .00000601  00000+0  72443-4 0  9991
2 28499  98.2716 334.5044 0084848  47.7848 313.0527 14.85441248159715
CZ-2D R/B               
1 28738U 05024B   26162.60785649  .00052673  00000+0  45707-3 0  9999
2 28738  97.3492 181.7601 0004294  64.7729 295.3977 15.68952672154465
ALOS (DAICHI)           
1 28931U 06002A   26162.44104765  .00000858  00000+0  15132-3 0  9994
2 28931  98.1322 118.0264 0001666  58.7526 301.3843 14.70038394 87257
