OBJECT_NAME,OBJECT_ID,EPOCH,MEAN_MOTION,ECCENTRICITY,INCLINATION,RA_OF_ASC_NODE,ARG_OF_PERICENTER,MEAN_ANOMALY,EPHEMERIS_TYPE,CLASSIFICATION_TYPE,NORAD_CAT_ID,ELEMENT_SET_NO,REV_AT_EPOCH,BSTAR,MEAN_MOTION_DOT,MEAN_MOTION_DDOT
SL-16 R/B,1994-077B,2026-06-11T09:31:37.140960,14.15572204,.00026955,70.9805,155.3442,331.6399,28.4576,0,U,23405,999,62949,-.74025271E-4,-.193E-5,0
ARIANE 40+ R/B,1995-021B,2026-06-11T15:29:51.173952,14.39830335,.0006065,98.4411,232.8005,211.1259,271.2310,0,U,23561,999,63276,.81307616E-4,.212E-5,0
SL-16 R/B,1995-058B,2026-06-11T14:53:29.415840,14.15505575,.00135063,71.0215,343.0464,328.0858,31.9445,0,U,23705,999,58114,.82162703E-4,.113E-5,0
SL-16 R/B,1996-051B,2026-06-11T13:52:40.454400,14.12444036,.00149889,70.7638,336.5197,345.3905,14.6779,0,U,24298,999,53490,.89667329E-4,.116E-5,0
ORBVIEW 2 (SEASTAR),1997-037A,2026-06-11T10:39:24.366528,14.35550492,.00030381,98.8682,329.3041,127.6428,232.5032,0,U,24883,999,52192,.8215695E-4,.19E-5,0
SL-16 R/B,1998-043G,2026-06-11T14:37:49.748448,14.26067680,.00109222,98.8362,116.7209,100.8867,259.3543,0,U,25400,999,45237,.29848412E-4,.26E-6,0
SL-16 R/B,1998-045B,2026-06-11T14:02:50.796096,14.16204881,.00094986,71.0121,344.1109,248.7612,111.2498,0,U,25407,999,44039,-.39022898E-4,-.125E-5,0
ISS (ZARYA),1998-067A,2026-06-11T12:18:41.484960,15.49175527,.00051194,51.6332,328.1749,173.4651,186.6405,0,U,25544,999,57087,.16294015E-3,.8593E-4,0
CZ-4B R/B,1999-025C,2026-06-11T15:29:32.620416,14.18282559,.00382115,98.6485,204.6233,75.1489,37.8005,0,U,25732,999,40148,.36881084E-4,.34E-6,0
OKEAN-O,1999-039A,2026-06-11T14:27:45.454752,14.80460634,.00017436,97.9318,221.4644,75.6964,284.4442,0,U,25860,999,44828,.72817937E-4,.505E-5,0
SL-16 R/B,1999-039B,2026-06-11T03:45:57.163968,14.81839095,.00138062,97.9839,221.0369,318.1920,41.8237,0,U,25861,999,45070,.55785469E-4,.387E-5,0
DELTA 2 R/B,1999-041E,2026-06-11T15:42:34.680384,14.12006126,.05008706,51.7663,285.8973,265.6605,88.6963,0,U,25876,999,37630,.15723262E-3,.742E-5,0
HELIOS 1B,1999-064A,2026-06-11T14:20:04.780320,14.87992090,.00024731,98.1620,67.5751,98.7251,261.4245,0,U,25977,999,69922,.13719263E-3,.12E-4,0
TERRA,1999-068A,2026-06-11T14:49:55.339104,14.61098725,.00011655,97.9458,212.3849,212.7664,264.0543,0,U,25994,999,40879,.76310553E-4,.331E-5,0
SL-16 R/B,2000-006B,2026-06-11T15:00:07.001856,14.15835331,.0015231,71.0027,260.3204,31.6871,328.5166,0,U,26070,999,36185,-.11503228E-3,-.274E-5,0
TITAN 4B R/B,2000-047B,2026-06-11T15:06:14.722848,15.10164886,.00456098,67.9872,136.2167,292.8503,66.7833,0,U,26474,999,40709,.17759464E-3,.2837E-4,0
ENVISAT,2002-009A,2026-06-11T15:21:21.813120,14.39063514,.00013455,98.3832,114.0820,90.1775,87.9707,0,U,27386,999,27268,.33168003E-4,.6E-6,0
IDEFIX & ARIANE 42P R/B,2002-021B,2026-06-11T12:52:07.120992,14.31079537,.00105836,98.5943,100.0806,272.4874,87.5097,0,U,27422,999,25744,.82492208E-4,.173E-5,0
AQUA,2002-022A,2026-06-11T16:05:04.837632,14.62149861,.00013261,98.4275,131.8429,53.0500,124.9393,0,U,27424,999,28246,.14523525E-3,.681E-5,0
CZ-4B R/B,2002-024C,2026-06-11T14:15:00.063072,14.14563456,.0051141,98.8701,215.4501,115.7923,6.5449,0,U,27432,999,24251,.34687238E-4,.24E-6,0
MIDORI II (ADEOS-II),2002-056A,2026-06-11T14:35:25.556352,14.29346656,.00022229,98.7876,121.8204,84.4663,275.6772,0,U,27597,999,22371,.10381934E-3,.219E-5,0
H-2A R/B,2002-056E,2026-06-11T12:11:57.643584,14.33819676,.00689755,98.3310,119.3899,241.7283,227.9874,0,U,27601,999,22755,.69714803E-4,.157E-5,0
CZ-4B R/B,2003-049C,2026-06-11T14:13:21.351072,14.55096543,.00471356,98.6895,161.2164,306.0717,53.6118,0,U,28059,999,20025,.74012609E-4,.272E-5,0
CZ-2C R/B,2004-012C,2026-06-11T13:57:15.058656,15.77909746,.00089504,97.7096,237.5970,307.8744,52.1711,0,U,28222,999,21901,.55370077E-3,.94162E-3,0
SL-16 R/B,2004-021B,2026-06-11T01:55:16.612896,14.14611092,.00074666,71.0017,36.5069,261.8817,98.1458,0,U,28353,999,13604,-.11637608E-3,-.271E-5,0
CZ-4B R/B,2004-035C,2026-06-11T13:48:54.092448,15.30544874,.00305762,97.3373,195.7122,358.4261,1.6878,0,U,28415,999,19426,.25488826E-3,.7557E-4,0
CZ-2C R/B,2004-046B,2026-06-11T13:58:18.218784,14.27025299,.01382477,98.1950,71.7130,236.9530,121.8311,0,U,28480,999,12189,.31836977E-4,.44E-6,0
ARIANE 5 R/B,2004-049H,2026-06-11T11:19:40.119168,14.85441248,.00848483,98.2716,334.5044,47.7848,313.0527,0,U,28499,999,15971,.72443429E-4,.601E-5,0
CZ-2D R/B,2005-024B,2026-06-11T14:35:18.800736,15.68952672,.0004294,97.3492,181.7601,64.7729,295.3977,0,U,28738,999,15446,.45706753E-3,.52673E-3,0
ALOS (DAICHI),2006-002A,2026-06-11T10:35:06.516960,14.70038394,.00016666,98.1322,118.0264,58.7526,301.3843,0,U,28931,999,8725,.15131575E-3,.858E-5,0
